{
  "type": "FeatureCollection",
  "features": [
    {
      "type": "Feature",
      "properties": {
        "norad_id": 66174,
        "name": "HTV-X1",
        "group": "stations",
        "lat": 18.318294263257204,
        "lon": -99.78756513279916,
        "alt_km": 416.9418683014201,
        "timestamp": "2025-12-22T05:49:02.220191+00:00",
        "meta_object_name": "HTV-X1",
        "meta_object_id": "2025-241A",
        "meta_epoch": "2025-12-21T13:40:08.668128",
        "meta_mean_motion": 15.49703708,
        "meta_eccentricity": 0.00031656,
        "meta_inclination": 51.6324,
        "meta_ra_of_asc_node": 98.7522,
        "meta_arg_of_pericenter": 281.5679,
        "meta_mean_anomaly": 78.4955,
        "meta_ephemeris_type": 0,
        "meta_classification_type": "U",
        "meta_norad_cat_id": 66174,
        "meta_element_set_no": 999,
        "meta_rev_at_epoch": 51,
        "meta_bstar": 0.0001683656,
        "meta_mean_motion_dot": 9.066e-05,
        "meta_mean_motion_ddot": 0,
        "tle_line1": "1 66174U 25241A   25355.56954477  .00009066  00000+0  16837-3 0  9993",
        "tle_line2": "2 66174  51.6324  98.7522 0003165 281.5679  78.4955 15.49703708   511"
      },
      "geometry": {
        "type": "Point",
        "coordinates": [
          -99.78756513279916,
          18.318294263257204
        ]
      }
    },
    {
      "type": "Feature",
      "properties": {
        "norad_id": 66515,
        "name": "SZ-21 MODULE",
        "group": "stations",
        "lat": -35.272374495504124,
        "lon": -95.14104512336665,
        "alt_km": 378.45912723203855,
        "timestamp": "2025-12-22T05:49:02.220200+00:00",
        "meta_object_name": "SZ-21 MODULE",
        "meta_object_id": "2025-246C",
        "meta_epoch": "2025-12-21T02:28:16.865472",
        "meta_mean_motion": 15.62895195,
        "meta_eccentricity": 0.00053926,
        "meta_inclination": 41.4772,
        "meta_ra_of_asc_node": 325.0132,
        "meta_arg_of_pericenter": 304.7401,
        "meta_mean_anomaly": 55.2931,
        "meta_ephemeris_type": 0,
        "meta_classification_type": "U",
        "meta_norad_cat_id": 66515,
        "meta_element_set_no": 999,
        "meta_rev_at_epoch": 575,
        "meta_bstar": 0.00023274036,
        "meta_mean_motion_dot": 0.00021377,
        "meta_mean_motion_ddot": 0,
        "tle_line1": "1 66515U 25246C   25355.10297298  .00021377  00000+0  23274-3 0  9990",
        "tle_line2": "2 66515  41.4772 325.0132 0005392 304.7401  55.2931 15.62895195  5757"
      },
      "geometry": {
        "type": "Point",
        "coordinates": [
          -95.14104512336665,
          -35.272374495504124
        ]
      }
    },
    {
      "type": "Feature",
      "properties": {
        "norad_id": 66645,
        "name": "SHENZHOU-22",
        "group": "stations",
        "lat": -41.15173824008093,
        "lon": -122.73790653205857,
        "alt_km": 397.0848769089516,
        "timestamp": "2025-12-22T05:49:02.220211+00:00",
        "meta_object_name": "SHENZHOU-22",
        "meta_object_id": "2025-272A",
        "meta_epoch": "2025-12-21T13:16:11.322912",
        "meta_mean_motion": 15.59533817,
        "meta_eccentricity": 0.0007788,
        "meta_inclination": 41.4687,
        "meta_ra_of_asc_node": 323.1886,
        "meta_arg_of_pericenter": 108.2472,
        "meta_mean_anomaly": 251.9215,
        "meta_ephemeris_type": 0,
        "meta_classification_type": "U",
        "meta_norad_cat_id": 66645,
        "meta_element_set_no": 999,
        "meta_rev_at_epoch": 26519,
        "meta_bstar": 0.00020086225,
        "meta_mean_motion_dot": 0.00016128,
        "meta_mean_motion_ddot": 0,
        "tle_line1": "1 66645U 25272A   25355.55290883  .00016128  00000+0  20086-3 0  9991",
        "tle_line2": "2 66645  41.4687 323.1886 0007788 108.2472 251.9215 15.59533817265199"
      },
      "geometry": {
        "type": "Point",
        "coordinates": [
          -122.73790653205857,
          -41.15173824008093
        ]
      }
    },
    {
      "type": "Feature",
      "properties": {
        "norad_id": 66664,
        "name": "SOYUZ-MS 28",
        "group": "stations",
        "lat": 18.3182996505701,
        "lon": -99.78757004260123,
        "alt_km": 416.9422835737878,
        "timestamp": "2025-12-22T05:49:02.220221+00:00",
        "meta_object_name": "SOYUZ-MS 28",
        "meta_object_id": "2025-275A",
        "meta_epoch": "2025-12-21T13:40:08.668128",
        "meta_mean_motion": 15.49703708,
        "meta_eccentricity": 0.0003166,
        "meta_inclination": 51.6324,
        "meta_ra_of_asc_node": 98.7522,
        "meta_arg_of_pericenter": 281.5679,
        "meta_mean_anomaly": 78.4955,
        "meta_ephemeris_type": 0,
        "meta_classification_type": "U",
        "meta_norad_cat_id": 66664,
        "meta_element_set_no": 999,
        "meta_rev_at_epoch": 381,
        "meta_bstar": 0.00016837,
        "meta_mean_motion_dot": 9.066e-05,
        "meta_mean_motion_ddot": 0,
        "tle_line1": "1 66664U 25275A   25355.56954477  .00009066  00000+0  16837-3 0  9994",
        "tle_line2": "2 66664  51.6324  98.7522 0003166 281.5679  78.4955 15.49703708  3812"
      },
      "geometry": {
        "type": "Point",
        "coordinates": [
          -99.78757004260123,
          18.3182996505701
        ]
      }
    },
    {
      "type": "Feature",
      "properties": {
        "norad_id": 66906,
        "name": "1998-067XS",
        "group": "stations",
        "lat": -34.62635364375277,
        "lon": -51.55981897756309,
        "alt_km": 415.74597243865264,
        "timestamp": "2025-12-22T05:49:02.220231+00:00",
        "meta_object_name": "1998-067XS",
        "meta_object_id": "1998-067XS",
        "meta_epoch": "2025-12-21T16:28:28.030656",
        "meta_mean_motion": 15.51020739,
        "meta_eccentricity": 0.0002929,
        "meta_inclination": 51.6318,
        "meta_ra_of_asc_node": 98.0337,
        "meta_arg_of_pericenter": 244.8837,
        "meta_mean_anomaly": 115.1848,
        "meta_ephemeris_type": 0,
        "meta_classification_type": "U",
        "meta_norad_cat_id": 66906,
        "meta_element_set_no": 999,
        "meta_rev_at_epoch": 300,
        "meta_bstar": 0.0004307,
        "meta_mean_motion_dot": 0.00025109,
        "meta_mean_motion_ddot": 0,
        "tle_line1": "1 66906U 98067XS  25355.68643554  .00025109  00000+0  43070-3 0  9991",
        "tle_line2": "2 66906  51.6318  98.0337 0002929 244.8837 115.1848 15.51020739  3005"
      },
      "geometry": {
        "type": "Point",
        "coordinates": [
          -51.55981897756309,
          -34.62635364375277
        ]
      }
    },
    {
      "type": "Feature",
      "properties": {
        "norad_id": 66907,
        "name": "1998-067XT",
        "group": "stations",
        "lat": -49.7884165540278,
        "lon": 25.579349819251203,
        "alt_km": 411.2354324779981,
        "timestamp": "2025-12-22T05:49:02.220241+00:00",
        "meta_object_name": "1998-067XT",
        "meta_object_id": "1998-067XT",
        "meta_epoch": "2025-12-21T16:14:38.830848",
        "meta_mean_motion": 15.52487606,
        "meta_eccentricity": 0.0003834,
        "meta_inclination": 51.6315,
        "meta_ra_of_asc_node": 97.969,
        "meta_arg_of_pericenter": 280.3147,
        "meta_mean_anomaly": 79.741,
        "meta_ephemeris_type": 0,
        "meta_classification_type": "U",
        "meta_norad_cat_id": 66907,
        "meta_element_set_no": 999,
        "meta_rev_at_epoch": 300,
        "meta_bstar": 0.00094407,
        "meta_mean_motion_dot": 0.00058863,
        "meta_mean_motion_ddot": 0,
        "tle_line1": "1 66907U 98067XT  25355.67683832  .00058863  00000+0  94407-3 0  9997",
        "tle_line2": "2 66907  51.6315  97.9690 0003834 280.3147  79.7410 15.52487606  3009"
      },
      "geometry": {
        "type": "Point",
        "coordinates": [
          25.579349819251203,
          -49.7884165540278
        ]
      }
    },
    {
      "type": "Feature",
      "properties": {
        "norad_id": 66908,
        "name": "1998-067XU",
        "group": "stations",
        "lat": -48.180453392352135,
        "lon": 32.829817486054694,
        "alt_km": 410.9379331112914,
        "timestamp": "2025-12-22T05:49:02.220251+00:00",
        "meta_object_name": "1998-067XU",
        "meta_object_id": "1998-067XU",
        "meta_epoch": "2025-12-21T00:46:29.963136",
        "meta_mean_motion": 15.52510982,
        "meta_eccentricity": 0.00039042,
        "meta_inclination": 51.6311,
        "meta_ra_of_asc_node": 101.1653,
        "meta_arg_of_pericenter": 276.2494,
        "meta_mean_anomaly": 83.8051,
        "meta_ephemeris_type": 0,
        "meta_classification_type": "U",
        "meta_norad_cat_id": 66908,
        "meta_element_set_no": 999,
        "meta_rev_at_epoch": 290,
        "meta_bstar": 0.00080289362,
        "meta_mean_motion_dot": 0.00049977,
        "meta_mean_motion_ddot": 0,
        "tle_line1": "1 66908U 98067XU  25355.03229124  .00049977  00000+0  80289-3 0  9997",
        "tle_line2": "2 66908  51.6311 101.1653 0003904 276.2494  83.8051 15.52510982  2909"
      },
      "geometry": {
        "type": "Point",
        "coordinates": [
          32.829817486054694,
          -48.180453392352135
        ]
      }
    }
  ]
}